<?xml version="1.0" encoding="UTF-8"?>
<ndm xmlns:xsi="http://www.w3.org/2001/XMLSchema-instance" xsi:noNamespaceSchemaLocation="https://sanaregistry.org/r/ndmxml_unqualified/ndmxml-2.0.0-master-2.0.xsd">
<omm id="CCSDS_OMM_VERS" version="2.0">
<header><CREATION_DATE/><ORIGINATOR/></header><body><segment><metadata><OBJECT_NAME>KUIPER-00061</OBJECT_NAME><OBJECT_ID>2025-134X</OBJECT_ID><CENTER_NAME>EARTH</CENTER_NAME><REF_FRAME>TEME</REF_FRAME><TIME_SYSTEM>UTC</TIME_SYSTEM><MEAN_ELEMENT_THEORY>SGP4</MEAN_ELEMENT_THEORY></metadata><data><meanElements><EPOCH>2025-07-16T10:20:15.973152</EPOCH><MEAN_MOTION>15.35275361</MEAN_MOTION><ECCENTRICITY>.0005192</ECCENTRICITY><INCLINATION>51.8732</INCLINATION><RA_OF_ASC_NODE>220.2205</RA_OF_ASC_NODE><ARG_OF_PERICENTER>187.7955</ARG_OF_PERICENTER><MEAN_ANOMALY>172.2951</MEAN_ANOMALY></meanElements><tleParameters><EPHEMERIS_TYPE>0</EPHEMERIS_TYPE><CLASSIFICATION_TYPE>U</CLASSIFICATION_TYPE><NORAD_CAT_ID>64521</NORAD_CAT_ID><ELEMENT_SET_NO>999</ELEMENT_SET_NO><REV_AT_EPOCH>476</REV_AT_EPOCH><BSTAR>.25922E-3</BSTAR><MEAN_MOTION_DOT>.8645E-4</MEAN_MOTION_DOT><MEAN_MOTION_DDOT>0</MEAN_MOTION_DDOT></tleParameters></data></segment></body></omm>
<omm id="CCSDS_OMM_VERS" version="2.0">
<header><CREATION_DATE/><ORIGINATOR/></header><body><segment><metadata><OBJECT_NAME>KUIPER-00062</OBJECT_NAME><OBJECT_ID>2025-134Y</OBJECT_ID><CENTER_NAME>EARTH</CENTER_NAME><REF_FRAME>TEME</REF_FRAME><TIME_SYSTEM>UTC</TIME_SYSTEM><MEAN_ELEMENT_THEORY>SGP4</MEAN_ELEMENT_THEORY></metadata><data><meanElements><EPOCH>2025-07-16T08:39:28.919232</EPOCH><MEAN_MOTION>15.35602997</MEAN_MOTION><ECCENTRICITY>.0004692</ECCENTRICITY><INCLINATION>51.8740</INCLINATION><RA_OF_ASC_NODE>220.5021</RA_OF_ASC_NODE><ARG_OF_PERICENTER>178.2292</ARG_OF_PERICENTER><MEAN_ANOMALY>181.8712</MEAN_ANOMALY></meanElements><tleParameters><EPHEMERIS_TYPE>0</EPHEMERIS_TYPE><CLASSIFICATION_TYPE>U</CLASSIFICATION_TYPE><NORAD_CAT_ID>64522</NORAD_CAT_ID><ELEMENT_SET_NO>999</ELEMENT_SET_NO><REV_AT_EPOCH>476</REV_AT_EPOCH><BSTAR>.42712E-3</BSTAR><MEAN_MOTION_DOT>.14659E-3</MEAN_MOTION_DOT><MEAN_MOTION_DDOT>0</MEAN_MOTION_DDOT></tleParameters></data></segment></body></omm>
<omm id="CCSDS_OMM_VERS" version="2.0">
<header><CREATION_DATE/><ORIGINATOR/></header><body><segment><metadata><OBJECT_NAME>KUIPER-00063</OBJECT_NAME><OBJECT_ID>2025-134Z</OBJECT_ID><CENTER_NAME>EARTH</CENTER_NAME><REF_FRAME>TEME</REF_FRAME><TIME_SYSTEM>UTC</TIME_SYSTEM><MEAN_ELEMENT_THEORY>SGP4</MEAN_ELEMENT_THEORY></metadata><data><meanElements><EPOCH>2025-07-16T08:28:28.731648</EPOCH><MEAN_MOTION>15.36180495</MEAN_MOTION><ECCENTRICITY>.0002455</ECCENTRICITY><INCLINATION>51.8738</INCLINATION><RA_OF_ASC_NODE>220.4546</RA_OF_ASC_NODE><ARG_OF_PERICENTER>155.6010</ARG_OF_PERICENTER><MEAN_ANOMALY>204.5093</MEAN_ANOMALY></meanElements><tleParameters><EPHEMERIS_TYPE>0</EPHEMERIS_TYPE><CLASSIFICATION_TYPE>U</CLASSIFICATION_TYPE><NORAD_CAT_ID>64523</NORAD_CAT_ID><ELEMENT_SET_NO>999</ELEMENT_SET_NO><REV_AT_EPOCH>476</REV_AT_EPOCH><BSTAR>-.54859E-3</BSTAR><MEAN_MOTION_DOT>-.19976E-3</MEAN_MOTION_DOT><MEAN_MOTION_DDOT>0</MEAN_MOTION_DDOT></tleParameters></data></segment></body></omm>
<omm id="CCSDS_OMM_VERS" version="2.0">
<header><CREATION_DATE/><ORIGINATOR/></header><body><segment><metadata><OBJECT_NAME>KUIPER-00064</OBJECT_NAME><OBJECT_ID>2025-134AA</OBJECT_ID><CENTER_NAME>EARTH</CENTER_NAME><REF_FRAME>TEME</REF_FRAME><TIME_SYSTEM>UTC</TIME_SYSTEM><MEAN_ELEMENT_THEORY>SGP4</MEAN_ELEMENT_THEORY></metadata><data><meanElements><EPOCH>2025-07-16T06:43:16.220640</EPOCH><MEAN_MOTION>15.36770303</MEAN_MOTION><ECCENTRICITY>.0001147</ECCENTRICITY><INCLINATION>51.8765</INCLINATION><RA_OF_ASC_NODE>220.7121</RA_OF_ASC_NODE><ARG_OF_PERICENTER>120.6901</ARG_OF_PERICENTER><MEAN_ANOMALY>239.4199</MEAN_ANOMALY></meanElements><tleParameters><EPHEMERIS_TYPE>0</EPHEMERIS_TYPE><CLASSIFICATION_TYPE>U</CLASSIFICATION_TYPE><NORAD_CAT_ID>64524</NORAD_CAT_ID><ELEMENT_SET_NO>999</ELEMENT_SET_NO><REV_AT_EPOCH>475</REV_AT_EPOCH><BSTAR>.5276E-3</BSTAR><MEAN_MOTION_DOT>.18911E-3</MEAN_MOTION_DOT><MEAN_MOTION_DDOT>0</MEAN_MOTION_DDOT></tleParameters></data></segment></body></omm>
<omm id="CCSDS_OMM_VERS" version="2.0">
<header><CREATION_DATE/><ORIGINATOR/></header><body><segment><metadata><OBJECT_NAME>KUIPER-00065</OBJECT_NAME><OBJECT_ID>2025-134AB</OBJECT_ID><CENTER_NAME>EARTH</CENTER_NAME><REF_FRAME>TEME</REF_FRAME><TIME_SYSTEM>UTC</TIME_SYSTEM><MEAN_ELEMENT_THEORY>SGP4</MEAN_ELEMENT_THEORY></metadata><data><meanElements><EPOCH>2025-07-16T10:36:51.829056</EPOCH><MEAN_MOTION>15.34566981</MEAN_MOTION><ECCENTRICITY>.0008258</ECCENTRICITY><INCLINATION>51.8696</INCLINATION><RA_OF_ASC_NODE>220.2903</RA_OF_ASC_NODE><ARG_OF_PERICENTER>193.1098</ARG_OF_PERICENTER><MEAN_ANOMALY>166.9674</MEAN_ANOMALY></meanElements><tleParameters><EPHEMERIS_TYPE>0</EPHEMERIS_TYPE><CLASSIFICATION_TYPE>U</CLASSIFICATION_TYPE><NORAD_CAT_ID>64525</NORAD_CAT_ID><ELEMENT_SET_NO>999</ELEMENT_SET_NO><REV_AT_EPOCH>476</REV_AT_EPOCH><BSTAR>.42453E-3</BSTAR><MEAN_MOTION_DOT>.14093E-3</MEAN_MOTION_DOT><MEAN_MOTION_DDOT>0</MEAN_MOTION_DDOT></tleParameters></data></segment></body></omm>
<omm id="CCSDS_OMM_VERS" version="2.0">
<header><CREATION_DATE/><ORIGINATOR/></header><body><segment><metadata><OBJECT_NAME>KUIPER-00066</OBJECT_NAME><OBJECT_ID>2025-134AC</OBJECT_ID><CENTER_NAME>EARTH</CENTER_NAME><REF_FRAME>TEME</REF_FRAME><TIME_SYSTEM>UTC</TIME_SYSTEM><MEAN_ELEMENT_THEORY>SGP4</MEAN_ELEMENT_THEORY></metadata><data><meanElements><EPOCH>2025-07-16T11:29:35.549088</EPOCH><MEAN_MOTION>15.36505984</MEAN_MOTION><ECCENTRICITY>.000119</ECCENTRICITY><INCLINATION>51.8755</INCLINATION><RA_OF_ASC_NODE>219.7975</RA_OF_ASC_NODE><ARG_OF_PERICENTER>123.8557</ARG_OF_PERICENTER><MEAN_ANOMALY>236.2543</MEAN_ANOMALY></meanElements><tleParameters><EPHEMERIS_TYPE>0</EPHEMERIS_TYPE><CLASSIFICATION_TYPE>U</CLASSIFICATION_TYPE><NORAD_CAT_ID>64526</NORAD_CAT_ID><ELEMENT_SET_NO>999</ELEMENT_SET_NO><REV_AT_EPOCH>478</REV_AT_EPOCH><BSTAR>.52214E-3</BSTAR><MEAN_MOTION_DOT>.18549E-3</MEAN_MOTION_DOT><MEAN_MOTION_DDOT>0</MEAN_MOTION_DDOT></tleParameters></data></segment></body></omm>
</ndm>
