KUIPER-00061            
1 64521U 25134X   25197.43074043  .00008645  00000+0  25922-3 0  9997
2 64521  51.8732 220.2205 0005192 187.7955 172.2951 15.35275361  4760
KUIPER-00062            
1 64522U 25134Y   25197.36075138  .00014659  00000+0  42712-3 0  9994
2 64522  51.8740 220.5021 0004692 178.2292 181.8712 15.35602997  4762
KUIPER-00063            
1 64523U 25134Z   25197.35311032 -.00019976  00000+0 -54859-3 0  9994
2 64523  51.8738 220.4546 0002455 155.6010 204.5093 15.36180495  4763
KUIPER-00064            
1 64524U 25134AA  25197.28004885  .00018911  00000+0  52760-3 0  9997
2 64524  51.8765 220.7121 0001147 120.6901 239.4199 15.36770303  4750
KUIPER-00065            
1 64525U 25134AB  25197.44226654  .00014093  00000+0  42453-3 0  9991
2 64525  51.8696 220.2903 0008258 193.1098 166.9674 15.34566981  4765
KUIPER-00066            
1 64526U 25134AC  25197.47888367  .00018549  00000+0  52214-3 0  9996
2 64526  51.8755 219.7975 0001190 123.8557 236.2543 15.36505984  4788
